BEIDOU 8                
1 37384U 11013A   21312.66715067 -.00000194  00000-0  00000-0 0  9993
2 37384  59.9753  56.4605 0019531 184.8992 152.7513  1.00268357 38806
INTELSAT NEW DAWN       
1 37392U 11016A   21312.83445854  .00000154  00000-0  00000-0 0  9993
2 37392   0.0108 220.5248 0000913 331.6269 189.3201  1.00270080 36428
YAHSAT 1A               
1 37393U 11016B   21312.98185597  .00000099  00000-0  00000+0 0  9992
2 37393   0.0139 276.0914 0001624 326.9124 211.3535  1.00269858 38706
SBIRS GEO-1 (USA 230)   
1 37481U 11019A   21312.84108713 -.00000011  00000-0  00000-0 0  9999
2 37481   1.8117  10.9710 0002326 212.3833 193.9021  1.00272228 38545
TELSTAR 14R             
1 37602U 11021A   21312.78325375 -.00000281  00000-0  00000-0 0  9994
2 37602   0.0196 354.7867 0000973 305.3053 327.0819  1.00271102 38975
GSAT-8                  
1 37605U 11022A   21312.92688196  .00000082  00000-0  00000-0 0  9995
2 37605   0.0573  93.9722 0007274 157.5920 185.5412  1.00273452 36356
ST-2                    
1 37606U 11022B   21312.93799630 -.00000214  00000-0  00000-0 0  9991
2 37606   0.0102 264.4926 0001754 334.0306 235.5320  1.00270976 38425
CHINASAT 10 (ZX 10)     
1 37677U 11026A   21312.89733098 -.00000355  00000-0  00000-0 0  9990
2 37677   0.0866 261.9894 0004691 292.9080 286.9671  1.00274271 38139
TIANLIAN 1-02           
1 37737U 11032A   21312.51014903 -.00000015  00000-0  00000-0 0  9993
2 37737   2.6428  74.8605 0019620 110.5318 217.3113  1.00275285 37859
GSAT-12                 
1 37746U 11034A   21312.83742396  .00000123  00000-0  00000-0 0  9993
2 37746   0.8239  94.9373 0007455   8.9715 293.7582  1.00273935 26630
SES-3                   
1 37748U 11035A   21313.17445466 -.00000105  00000-0  00000+0 0  9992
2 37748   0.0275  16.3554 0002399 210.7989 141.2390  1.00269128 37849
KAZSAT-2                
1 37749U 11035B   21312.77331855 -.00000200  00000-0  00000-0 0  9991
2 37749   0.0184 288.3128 0000898   0.3562 124.4349  1.00270311 36526
BEIDOU 9                
1 37763U 11038A   21312.88364682 -.00000047  00000-0  00000-0 0  9995
2 37763  54.4653 180.7234 0086124 225.9830  55.0241  1.00280611 37781
ASTRA 1N                
1 37775U 11041A   21312.97522740  .00000117  00000-0  00000+0 0  9999
2 37775   0.0601  50.6976 0000506 158.7921 209.1189  1.00269998 37548
BSAT-3C (JCSAT-110R)    
1 37776U 11041B   21312.99336878 -.00000353  00000-0  00000+0 0  9990
2 37776   0.0323  51.4513 0000192  76.8017  27.7274  1.00271465 37667
PAKSAT-1R               
1 37779U 11042A   21313.08399954  .00000151  00000-0  00000+0 0  9994
2 37779   0.0417  79.1576 0002114 215.4053 182.1243  1.00271557 37425
CHINASAT 1A (ZX 1A)     
1 37804U 11047A   21312.89914153 -.00000340  00000-0  00000-0 0  9992
2 37804   0.0162 293.2771 0002303  10.7845 197.7913  1.00270696 10501
SES-2                   
1 37809U 11049A   21313.18404897 -.00000199  00000-0  00000+0 0  9992
2 37809   0.0120 312.3852 0002769 272.4346 163.0324  1.00270784 37141
ARABSAT-5C              
1 37810U 11049B   21313.11896302  .00000121  00000-0  00000+0 0  9997
2 37810   0.0613 345.9034 0006857 222.0672 263.3801  1.00272281 37057
EUTELSAT 7 WEST A       
1 37816U 11051A   21313.11346826 -.00000063  00000-0  00000+0 0  9993
2 37816   0.0906  54.0743 0005973 156.5126 231.4967  1.00270920 37110
QUETZSAT 1              
1 37826U 11054A   21312.81256677 -.00000243  00000-0  00000-0 0  9998
2 37826   0.0227  16.0302 0002142 191.3962  56.3324  1.00272185 33039
INTELSAT 18 (IS-18)     
1 37834U 11056A   21312.79198328  .00000051  00000-0  00000-0 0  9990
2 37834   0.0287  18.0309 0001823 207.2901 288.0051  1.00271310 36952
EUTELSAT 16A            
1 37836U 11057A   21313.11817806  .00000101  00000-0  00000+0 0  9994
2 37836   0.0702  11.8680 0005097 222.1558 233.0545  1.00271072 36931
VIASAT-1                
1 37843U 11059A   21312.89188101 -.00000025  00000-0  00000-0 0  9994
2 37843   0.0160 277.0252 0001971 307.6929  29.5651  1.00271074 30466
ASIASAT 7               
1 37933U 11069A   21312.70537553 -.00000335  00000-0  00000+0 0  9997
2 37933   0.0655  88.1492 0001781  87.1687 232.2584  1.00272366 36607
BEIDOU 10               
1 37948U 11073A   21312.91836249 -.00000152  00000-0  00000-0 0  9993
2 37948  50.7234 291.9056 0078313 218.5499 323.1495  1.00260554 36544
LUCH 5A                 
1 37951U 11074B   21312.78936672 -.00000046  00000-0  00000-0 0  9996
2 37951   4.4651 102.1317 0002091  91.0108 306.2005  1.00273125 36335
NIGCOMSAT 1R            
1 38014U 11077A   21313.12341115  .00000142  00000-0  00000+0 0  9996
2 38014   0.0140 266.6664 0001119 195.2639  33.5063  1.00269177 36176
FENGYUN 2F              
1 38049U 12002A   21312.99371766 -.00000358  00000-0  00000+0 0  9992
2 38049   3.2561  81.2248 0002166   9.9543  66.8625  1.00261454 36031
WGS F4 (USA 233)        
1 38070U 12003A   21312.93799630 -.00000217  00000-0  00000-0 0  9990
2 38070   0.0167 263.3531 0000320 233.3224 337.7525  1.00269844 27297
SES-4                   
1 38087U 12007A   21312.82346905 -.00000170  00000-0  00000-0 0  9991
2 38087   0.0129  11.3903 0002391 228.7748  82.5315  1.00271912 35375
BEIDOU 11               
1 38091U 12008A   21312.96113362  .00000055  00000-0  00000-0 0  9992
2 38091   1.8661  70.7080 0003213 284.2257  98.1614  1.00272448 35629
MUOS-1                  
1 38093U 12009A   21312.58105676 -.00000128  00000-0  00000-0 0  9994
2 38093   2.7207  25.5301 0050879 356.5942 135.1108  1.00271639 35581
INTELSAT 22 (IS-22)     
1 38098U 12011A   21313.12934198 -.00000061  00000-0  00000+0 0  9997
2 38098   0.0219 288.9809 0003055 294.8537 303.3739  1.00270795 35194
APSTAR 7                
1 38107U 12013A   21313.13021417 -.00000104  00000-0  00000+0 0  9990
2 38107   0.0059 302.8873 0002708 291.3497 297.6875  1.00271455 35319
YAHSAT 1B               
1 38245U 12016A   21312.55030150  .00000125  00000-0  00000-0 0  9998
2 38245   0.0152 274.2859 0001666 324.1720  55.2187  1.00270251 28733
AEHF-2 (USA 235)        
1 38254U 12019A   21312.80890361 -.00000161  00000-0  00000-0 0  9998
2 38254   2.8970  58.5950 0003277 184.8368   1.8997  1.00268146 33995
JCSAT-13                
1 38331U 12023A   21312.85259994 -.00000358  00000-0  00000-0 0  9993
2 38331   0.0385 104.1307 0002160 112.8924 262.1966  1.00271988 34676
VINASAT-2               
1 38332U 12023B   21312.99772970 -.00000331  00000-0  00000+0 0  9993
2 38332   0.0165 329.7335 0001903 248.8527 320.8625  1.00270857 34759
NIMIQ 6                 
1 38342U 12026A   21313.18165593 -.00000177  00000-0  00000+0 0  9994
2 38342   0.0234  48.4364 0002383 166.2393 168.2201  1.00270816 34749
CHINASAT 2A (ZX 2A)     
1 38352U 12028A   21312.84745406 -.00000295  00000-0  00000-0 0  9998
2 38352   0.0162 294.6758 0002918  42.9176 114.0119  1.00272236 34526
INTELSAT 19 (IS-19)     
1 38356U 12030A   21312.78919228 -.00000058  00000-0  00000-0 0  9990
2 38356   0.0151 281.4581 0002731 292.1310 284.7305  1.00271173 33584
ECHOSTAR 17             
1 38551U 12035A   21313.17204144 -.00000078  00000-0  00000+0 0  9991
2 38551   0.0169 274.1053 0002052 314.2161 135.1015  1.00269686 34279
METEOSAT-10 (MSG-3)     
1 38552U 12035B   21312.82974876  .00000058  00000-0  00000-0 0  9997
2 38552   1.2746  24.5550 0002173 168.3137 163.2652  1.00271004 33992
SES-5                   
1 38652U 12036A   21313.16411963  .00000031  00000-0  00000+0 0  9990
2 38652   0.0564 292.6873 0001594 289.2126 250.7447  1.00272005 34213
TIANLIAN 1-03           
1 38730U 12040A   21313.19083082  .00000123  00000-0  00000+0 0  9994
2 38730   1.4599  94.2521 0002082 305.4301  98.0541  1.00275334 34135
INTELSAT 20 (IS-20)     
1 38740U 12043A   21312.92688196 -.00000027  00000-0  00000-0 0  9990
2 38740   0.0095 253.6007 0002404 290.2443 266.6826  1.00271753 33889
HYLAS 2                 
1 38741U 12043B   21312.83410969  .00000152  00000-0  00000-0 0  9990
2 38741   0.0130 282.3727 0001637 285.1625 172.0400  1.00273875 33908
INTELSAT 21 (IS-21)     
1 38749U 12045A   21313.17394792 -.00000288  00000-0  00000+0 0  9993
2 38749   0.0179 282.4490 0002015 291.3457 199.4178  1.00269771 33781
ASTRA 2F                
1 38778U 12051A   21312.83349914  .00000148  00000-0  00000-0 0  9995
2 38778   0.0525 233.6993 0004288 347.7793 155.0410  1.00269696 24263
GSAT-10                 
1 38779U 12051B   21313.13152243 -.00000168  00000-0  00000+0 0  9999
2 38779   0.0959  99.2155 0003077 140.7743 298.9242  1.00272071 33432
INTELSAT 23 (IS-23)     
1 38867U 12057A   21312.88905716 -.00000286  00000-0  00000-0 0  9997
2 38867   0.0321 124.1397 0001757  89.1996 102.0188  1.00272190 33085
BEIDOU 16               
1 38953U 12059A   21310.90674868 -.00000168  00000-0  00000-0 0  9996
2 38953   1.4374  84.2371 0009911 276.0620  96.3763  1.00267035 33179
LUCH 5B                 
1 38977U 12061A   21312.62966090 -.00000136  00000-0  00000-0 0  9992
2 38977   6.8152  64.1970 0003298 105.4890  88.6866  1.00270403 33313
YAMAL 300K              
1 38978U 12061B   21312.79259380  .00000069  00000-0  00000-0 0  9992
2 38978   0.0144 295.0185 0000595 100.5331 120.9406  1.00270450 32789
STAR ONE C3             
1 38991U 12062A   21313.19126278 -.00000252  00000-0  00000+0 0  9996
2 38991   0.0649  91.7034 0002375 145.0479 165.7267  1.00270090 33001
EUTELSAT 21B            
1 38992U 12062B   21313.11922466  .00000127  00000-0  00000+0 0  9992
2 38992   0.0704  12.3000 0002570 211.5546 249.1969  1.00270957 33016
ECHOSTAR 16             
1 39008U 21065A   21313.17234619 -.00000285  00000-0  00000+0 0  9992
2 39008   0.0161 261.7054 0002097 321.9308 185.4989  1.00273051 32951
CHINASAT 12 (ZX 12)     
1 39017U 12067A   21312.78371898 -.00000209  00000-0  00000-0 0  9998
2 39017   0.0103 287.1358 0002877 288.4824 202.2197  1.00272387 32648
